COSMOS 1892             
1 18421U 87088A   19126.95324392  .00000523  00000-0  24907-4 0  9999
2 18421  82.4980 316.7350 0016313  45.4213 314.8348 15.16800890722771
SL-14 R/B               
1 18749U 88001B   19126.80734931  .00000080  00000-0  68221-5 0  9992
2 18749  82.5167  19.6587 0018228 197.0923 227.7605 14.83186429692549
COSMOS 1933             
1 18958U 88020A   19127.13028589 -.00000167  00000-0 -14361-4 0  9990
2 18958  82.5284 158.8869 0013321  98.1752 262.0986 15.03584223695049
SL-3 R/B                
1 19046U 88032B   19127.52097358  .00000180  00000-0  17752-4 0  9995
2 19046  97.4367 160.7332 0037358 149.4225 210.9189 15.02547689676144
SL-16 R/B               
1 19120U 88039B   19127.56803026 -.00000171  00000-0 -58580-4 0  9992
2 19120  71.0141 308.2741 0023265 215.6557 144.3015 14.19195601604198
COSMOS 1953             
1 19210U 88050A   19126.91692937 -.00000001  00000-0 -20905-5 0  9993
2 19210  82.5170  85.3403 0014712  73.3013 286.9827 15.05765229681462
SL-8 R/B                
1 19257U 88053B   19127.17464733  .00000035  00000-0  20327-4 0  9999
2 19257  74.0512  29.8312 0019524 111.2580 357.0834 14.37435178617769
COSMOS 1975             
1 19573U 88093A   19126.92909184 -.00000082  00000-0 -79251-5 0  9995
2 19573  82.5228  38.8390 0015931 110.3252 249.9688 15.04674257642221
SL-14 R/B               
1 19574U 88093B   19127.24645331  .00000079  00000-0  66324-5 0  9994
2 19574  82.5345 220.7994 0021770   8.9412  48.0272 14.83296301651595
SL-16 R/B               
1 19650U 88102B   19127.09787671 -.00000212  00000-0 -83496-4 0  9996
2 19650  71.0015   6.4875 0015793 221.3495 138.6434 14.15781287573501
INTERCOSMOS 24          
1 20261U 89080A   19126.91445176  .00000016  00000-0  36803-5 0  9994
2 20261  82.6014 283.9746 1202494 308.2672  41.6024 12.56062194352837
SL-14 R/B               
1 20262U 89080C   19126.90458276  .00000077  00000-0  13722-4 0  9990
2 20262  82.5926 334.9723 1237831 126.3429 245.8456 12.48916272348112
DELTA 2 R/B(1)          
1 20303U 89085B   19127.12322876  .00001000  00000-0  35180-4 0  9991
2 20303  35.6266  47.1777 0097285 157.4136 203.0913 15.26174052605775
DELTA 1 R/B             
1 20323U 89089B   19126.60634715  .00000010  00000-0  11514-4 0  9992
2 20323  97.0722 333.5496 0073329  75.4518 285.4797 14.48299298533836
DELTA 2 R/B(1)          
1 20362U 89097B   19127.08212677  .00019775  00000-0  13587-3 0  9995
2 20362  35.6033 353.5244 0030365 293.1513 196.0978 15.73047142607582
ARIANE 40 R/B           
1 20443U 90005H   19126.72004044  .00000000  00000-0  14968-4 0  9999
2 20443  98.6296 182.8959 0011614 114.8642 245.3753 14.38059406533770
DELTA 2 R/B(1)          
1 20453U 90008B   19126.48607638  .00000406  00000-0  26311-4 0  9999
2 20453  35.6233 140.6003 0283010 141.3407 220.7933 14.84837109550513
COSMOS 2058             
1 20465U 90010A   19127.50186109  .00000301  00000-0  23197-4 0  9997
2 20465  82.4868 304.8902 0016716 129.0780 231.1933 14.97864451588517
SL-14 R/B               
1 20466U 90010B   19127.03497600  .00000066  00000-0  54427-5 0  9996
2 20466  82.5025  88.0400 0019223 233.3799 126.5647 14.81353856579472
SL-14 R/B               
1 20511U 90018B   19127.34059490  .00000101  00000-0  10278-4 0  9995
2 20511  82.5260  32.3159 0017945  18.0692 121.0988 14.80010831573997
HST                     
1 20580U 90037B   19127.43714307  .00000392  00000-0  12955-4 0  9993
2 20580  28.4685 131.3411 0002820  34.9070  97.6149 15.09217849394502
SL-16 R/B               
1 20625U 90046B   19127.49844203  .00000206  00000-0  13173-3 0  9994
2 20625  70.9973 142.3757 0013063 147.7061 212.4863 14.14644432495311
COSMOS 2084             
1 20663U 90055A   19127.30233593 -.00000049  00000-0  13928-4 0  9995
2 20663  62.7936  87.5342 0082201 162.4380 197.9587 14.91972258562612
SL-6 R/B(2)             
1 20666U 90055D   19126.95605362 -.00000051  00000-0  13270-4 0  9998
2 20666  62.7875   6.0026 0047797 193.4071 166.5757 14.92237840564484
SL-8 R/B                
1 20775U 90078B   19127.31605516  .00001507  00000-0  72351-4 0  9997
2 20775  82.9299 202.0671 0578117  15.0385 346.7200 14.33251065447390
SL-8 R/B                
1 21088U 91006B   19126.79610285  .00000056  00000-0  41540-4 0  9991
2 21088  82.9448 228.2960 0022497 188.9939 281.7837 13.77120548420107
OKEAN-3                 
1 21397U 91039A   19127.32467123  .00000239  00000-0  20459-4 0  9990
2 21397  82.5241 203.6390 0019539  92.3236 268.0222 14.92796512512580
COSMOS 2151             
1 21422U 91042A   19127.52692903  .00000127  00000-0  99305-5 0  9994
2 21422  82.4979 310.3420 0015013 147.1859 213.0297 14.92041502511289
SL-14 R/B               
1 21423U 91042B   19126.85329337  .00000090  00000-0  88486-5 0  9995
2 21423  82.4969  37.8424 0018314 150.2128 210.0132 14.79761633504427
ERS-1                   
1 21574U 91050A   19126.87071361  .00000035  00000-0  26056-4 0  9997
2 21574  98.5465  76.4204 0034103  61.5921 298.8696 14.37693359456559
ARIANE 40 R/B           
1 21610U 91050F   19126.79294625  .00000017  00000-0  19066-4 0  9992
2 21610  98.5113 193.9393 0004095  57.1446  52.0783 14.40869752459279
INTERCOSMOS 25          
1 21819U 91086A   19127.19441606  .00000598  00000-0  11337-3 0  9996
2 21819  82.5871  10.0692 1518561  59.8494 314.4329 12.04951889195253
SL-14 R/B               
1 21820U 91086B   19126.89076577  .00000017  00000-0  38490-5 0  9992
2 21820  82.5642  72.1813 1574872 276.1051  66.3494 11.93447747188938
SL-8 R/B                
1 21876U 92008B   19126.92956181 -.00000021  00000-0 -37338-4 0  9996
2 21876  82.9244 325.3134 0033479 271.7167 196.5978 13.75636057365847
SL-8 R/B                
1 21938U 92020B   19126.76098126  .00000007  00000-0 -91157-5 0  9990
2 21938  82.9328 209.2484 0030477  72.4002  39.0882 13.75277275357632
COSMOS 2219             
1 22219U 92076A   19127.55536314 -.00000261  00000-0 -11325-3 0  9998
2 22219  71.0610 197.7023 0016111  50.0878 310.1657 14.13644313365636
SL-16 R/B               
1 22220U 92076B   19127.24393100 -.00000138  00000-0 -45144-4 0  9990
2 22220  71.0021  48.7795 0014899 298.0782 172.5358 14.16444079368343
COSMOS 2221             
1 22236U 92080A   19126.94640475  .00000145  00000-0  13165-4 0  9992
2 22236  82.5053 128.6744 0015362 230.8588 129.1264 14.87823894408688
SL-16 R/B               
1 22285U 92093B   19127.47626909  .00000202  00000-0  12863-3 0  9992
2 22285  71.0219 206.2990 0004032 186.2559 173.8514 14.15030020360042
COSMOS 2228             
1 22286U 92094A   19126.95754901  .00000157  00000-0  14315-4 0  9994
2 22286  82.5199  84.3971 0021189 359.1460   0.9717 14.88038659403842
SL-16 R/B               
1 22566U 93016B   19126.91524415  .00000183  00000-0  11887-3 0  9990
2 22566  71.0090  61.2165 0010096 177.8347 182.2821 14.14959106348687
COSMOS 2242             
1 22626U 93024A   19127.50160314  .00000161  00000-0  14830-4 0  9994
2 22626  82.5195 111.8462 0018887 357.5782   2.5340 14.87898096408648
SL-16 R/B               
1 22803U 93059B   19126.74673487 -.00000205  00000-0 -78390-4 0  9996
2 22803  70.9911 238.4491 0015318  52.5278 307.7236 14.16806586325814
ARIANE 40 R/B           
1 22830U 93061H   19126.92984136 -.00000037  00000-0  35024-5 0  9995
2 22830  98.8192 165.9955 0012050  77.5620 282.6910 14.31433950336529
COSMOS 2278             
1 23087U 94023A   19126.92461654 -.00000285  00000-0 -12556-3 0  9993
2 23087  71.0544 359.4566 0011153 248.5716 111.4217 14.13783212291590
SL-16 R/B               
1 23088U 94023B   19126.83851103 -.00000311  00000-0 -13674-3 0  9998
2 23088  70.9981 276.6657 0002473 178.4911 181.6220 14.14673471292666
SL-16 R/B               
1 23343U 94074B   19127.23189133  .00000019  00000-0  10134-4 0  9992
2 23343  98.0565 177.3335 0007483  31.4186   8.6274 14.76775621318526
SL-16 R/B               
1 23405U 94077B   19126.65244186 -.00000279  00000-0 -11906-3 0  9996
2 23405  70.9839 207.8920 0003665 316.1463  43.9368 14.15211011262914
ERS-2                   
1 23560U 95021A   19126.84707656  .00000921  00000-0  43562-4 0  9991
2 23560  98.5016 221.1041 0004720 115.6498 244.5223 15.22482520280086
ARIANE 40+ R/B          
1 23561U 95021B   19127.53977566  .00000024  00000-0  23285-4 0  9992
2 23561  98.7697 154.3444 0007348  29.2809  86.9119 14.37919181260312
SL-16 R/B               
1 23705U 95058B   19126.94118286 -.00000120  00000-0 -37063-4 0  9990
2 23705  71.0247  23.9654 0013914 320.0325  39.9773 14.15126323214320
SL-16 R/B               
1 24298U 96051B   19127.23180740  .00000021  00000-0  37844-4 0  9994
2 24298  70.8276  49.2430 0019313 239.5408 120.3805 14.12396311169115
ORBVIEW 2 (SEASTAR)     
1 24883U 97037A   19127.20023757  .00000045  00000-0  32307-4 0  9995
2 24883  98.5792 238.2850 0001769 198.9960 161.1159 14.33502029150627
SL-16 R/B               
1 25400U 98043G   19127.45220225 -.00000021  00000-0  91072-5 0  9995
2 25400  98.5699  66.8193 0011091  82.8595 277.3846 14.25440071 83265
SL-16 R/B               
1 25407U 98045B   19126.95508735 -.00000256  00000-0 -10580-3 0  9997
2 25407  71.0137  33.9823 0009882 244.1294 115.8811 14.15786026 73409
ISS (ZARYA)             
1 25544U 98067A   19127.68042819  .00002043  00000-0  40039-4 0  9997
2 25544  51.6414 202.5044 0001029 315.6404 150.9454 15.52645094168964
SL-8 R/B                
1 25723U 99022C   19126.31739000  .00008196  00000-0  87268-4 0  9992
2 25723  48.4142  69.2565 0006969 139.9857 220.1607 15.64835625113894
CZ-4B R/B               
1 25732U 99025C   19127.09993373 -.00000026  00000-0  10029-4 0  9992
2 25732  98.9793 147.1532 0036326 291.4364 136.3327 14.17662633 34245
OKEAN-O                 
1 25860U 99039A   19127.12361535  .00000011  00000-0  93185-5 0  9990
2 25860  98.2272 133.6321 0001930  91.0102 269.1328 14.76602959 65492
